NORAD_CAT_ID,OBJECT_NAME,OBJECT_TYPE,EPOCH,MEAN_MOTION,ECCENTRICITY,INCLINATION,RA_OF_ASC_NODE,ARG_OF_PERICENTER,MEAN_ANOMALY,BSTAR,MEAN_MOTION_DOT,MEAN_MOTION_DDOT,TLE_LINE0,TLE_LINE1,TLE_LINE2,SEMIMAJOR_AXIS,PERIOD,APOGEE,PERIGEE,DECAYED
51987.0,STARLINK-3644,PAYLOAD,2022-08-03 12:00:00,15.08864292,0.0002435999999999,53.2168,178.7416,54.8423,241.9033,-0.0016944,-0.00027173,0.0,0 STARLINK-3644,1 51987U 22025AH  22215.50001157 -.00027173  00000-0 -16944-2 0  9990,2 51987  53.2168 178.7416 0002436  54.8423 241.9033 15.08864292 23756,6917.806,95.436,541.356,537.986,0.0
51987.0,STARLINK-3644,PAYLOAD,2022-08-03 14:00:01,15.08864512,0.0002411999999999,53.217,178.3669,56.57100000000001,333.0778,-0.0019526,-0.00031252,0.0,0 STARLINK-3644,1 51987U 22025AH  22215.58334491 -.00031252  00000-0 -19526-2 0  9990,2 51987  53.2170 178.3669 0002412  56.5710 333.0778 15.08864512  1308,6917.805,95.436,541.339,538.002,0.0
51987.0,STARLINK-3644,PAYLOAD,2022-08-03 22:00:01,15.08855167,0.0002381999999999,53.2172,176.87,60.9439,340.3773,0.00083398,0.00013015,0.0,0 STARLINK-3644,1 51987U 22025AH  22215.91668981  .00013015  00000-0  83398-3 0  9995,2 51987  53.2172 176.8700 0002382  60.9439 340.3773 15.08855167  1304,6917.834,95.437,541.347,538.0509999999998,0.0
51987.0,STARLINK-3644,PAYLOAD,2022-08-04 04:00:00,15.08861249,0.0002505999999999,53.2171,175.7491,57.081,262.8921,-0.00066215,-0.00010818,0.0,0 STARLINK-3644,1 51987U 22025AH  22216.16667824 -.00010818  00000-0 -66215-3 0  9997,2 51987  53.2171 175.7491 0002506  57.0810 262.8921 15.08861249 23851,6917.815,95.436,541.414,537.947,0.0
51987.0,STARLINK-3644,PAYLOAD,2022-08-04 14:00:01,15.08872818,0.0002369,53.2171,173.8777,58.0162,6.4763,-0.0042595,-0.00067507,0.0,0 STARLINK-3644,1 51987U 22025AH  22216.58334491 -.00067507  00000-0 -42595-2 0  9995,2 51987  53.2171 173.8777 0002369  58.0162   6.4763 15.08872818  1301,6917.78,95.435,541.284,538.006,0.0
51987.0,STARLINK-3644,PAYLOAD,2022-08-04 22:00:00,15.08840019,0.0002301,53.2172,172.38099999999997,61.3588,14.7353,0.00032501,4.888e-05,0.0,0 STARLINK-3644,1 51987U 22025AH  22216.91667824  .00004888  00000-0  32501-3 0  9999,2 51987  53.2172 172.3810 0002301  61.3588  14.7353 15.08840019  1304,6917.88,95.438,541.337,538.154,0.0
51987.0,STARLINK-3644,PAYLOAD,2022-08-05 12:00:00,15.08859808,0.0002379,53.2166,169.7632,57.6806,308.7017,-0.002049,-0.00032769,0.0,0 STARLINK-3644,1 51987U 22025AH  22217.50001157 -.00032769  00000-0 -20490-2 0  9990,2 51987  53.2166 169.7632 0002379  57.6806 308.7017 15.08859808 24051,6917.82,95.436,541.331,538.039,0.0
51987.0,STARLINK-3644,PAYLOAD,2022-08-05 14:00:01,15.08851773,0.0002329,53.2168,169.3886,60.0745,39.2742,-0.001156,-0.00018646,0.0,0 STARLINK-3644,1 51987U 22025AH  22217.58335648 -.00018646  00000-0 -11560-2 0  9999,2 51987  53.2168 169.3886 0002329  60.0745  39.2742 15.08851773  1302,6917.844,95.437,541.321,538.0980000000002,0.0
51987.0,STARLINK-3644,PAYLOAD,2022-08-05 22:00:00,15.08857293,0.0002318,53.2168,167.892,63.6464,47.2381,-0.00011256,-2.08e-05,0.0,0 STARLINK-3644,1 51987U 22025AH  22217.91667824 -.00002080  00000-0 -11256-3 0  9998,2 51987  53.2168 167.8920 0002318  63.6464  47.2381 15.08857293  1300,6917.828,95.436,541.2959999999998,538.089,0.0
51987.0,STARLINK-3644,PAYLOAD,2022-08-06 02:16:49,15.08849633,0.0002363,53.2182,167.0923,60.7757,299.3471,-4.1208e-06,-3.54e-06,0.0,0 STARLINK-3644,1 51987U 22025AH  22218.09501619 -.00000354  00000-0 -41208-5 0  9991,2 51987  53.2182 167.0923 0002363  60.7757 299.3471 15.08849633 24140,6917.851,95.437,541.351,538.081,0.0
51987.0,STARLINK-3644,PAYLOAD,2022-08-06 14:00:01,15.08839675,0.0002239,53.2162,164.8995,61.6698,72.4378,-0.0013634,-0.00021922,0.0,0 STARLINK-3644,1 51987U 22025AH  22218.58334491 -.00021922  00000-0 -13634-2 0  9990,2 51987  53.2162 164.8995 0002239  61.6698  72.4378 15.08839675  1302,6917.880999999999,95.438,541.295,538.197,0.0
51987.0,STARLINK-3644,PAYLOAD,2022-08-06 22:00:00,15.08844829,0.0002261,53.2163,163.4031,64.7912,80.8982,-0.00053888,-8.856e-05,0.0,0 STARLINK-3644,1 51987U 22025AH  22218.91667824 -.00008856  00000-0 -53888-3 0  9993,2 51987  53.2163 163.4031 0002261  64.7912  80.8982 15.08844829  1308,6917.866,95.437,541.295,538.1659999999998,0.0
51987.0,STARLINK-3644,PAYLOAD,2022-08-07 02:07:36,15.08834085,0.0002401999999999,53.2188,162.6325,64.9307,295.1934,1.02e-05,-1.26e-06,0.0,0 STARLINK-3644,1 51987U 22025AH  22219.08862125 -.00000126  00000-0  10200-4 0  9996,2 51987  53.2188 162.6325 0002402  64.9307 295.1934 15.08834085 24293,6917.898,95.438,541.425,538.102,0.0
51987.0,STARLINK-3644,PAYLOAD,2022-08-07 14:00:01,15.08842067,0.0002256999999999,53.2158,160.4104,63.5656,105.3122,-0.00021621,-3.728e-05,0.0,0 STARLINK-3644,1 51987U 22025AH  22219.58334491 -.00003728  00000-0 -21621-3 0  9991,2 51987  53.2158 160.4104 0002257  63.5656 105.3122 15.08842067 24370,6917.874,95.437,541.3,538.178,0.0
51987.0,STARLINK-3644,PAYLOAD,2022-08-07 22:00:00,15.08867341,0.0002262,53.216,158.9141,66.1401,114.3324,-0.003442,-0.00054695,0.0,0 STARLINK-3644,1 51987U 22025AH  22219.91667824 -.00054695  00000-0 -34420-2 0  9996,2 51987  53.2160 158.9141 0002262  66.1401 114.3324 15.08867341  1303,6917.797,95.436,541.227,538.097,0.0
51987.0,STARLINK-3644,PAYLOAD,2022-08-08 14:00:01,15.08840889,0.0002186,53.2159,155.9211,63.8531,139.8887,0.00083815,0.00013077,0.0,0 STARLINK-3644,1 51987U 22025AH  22220.58335648  .00013077  00000-0  83815-3 0  9997,2 51987  53.2159 155.9211 0002186  63.8531 139.8887 15.08840889  1303,6917.878000000002,95.437,541.255,538.23,0.0
51987.0,STARLINK-3644,PAYLOAD,2022-08-08 20:00:01,15.08866884,0.0002213,53.2161,154.7985,66.9706,55.469,-0.00048117,-7.944e-05,0.0,0 STARLINK-3644,1 51987U 22025AH  22220.83335648 -.00007944  00000-0 -48117-3 0  9999,2 51987  53.2161 154.7985 0002213  66.9706  55.4690 15.08866884 24561,6917.7980000000025,95.436,541.194,538.132,0.0
51987.0,STARLINK-3644,PAYLOAD,2022-08-08 22:00:00,15.08884769,0.0002203,53.2161,154.4251,66.1125,149.1654,-0.0033144,-0.00052718,0.0,0 STARLINK-3644,1 51987U 22025AH  22220.91667824 -.00052718  00000-0 -33144-2 0  9994,2 51987  53.2161 154.4251 0002203  66.1125 149.1654 15.08884769  1300,6917.744000000002,95.435,541.133,538.085,0.0
51987.0,STARLINK-3644,PAYLOAD,2022-08-09 12:00:00,15.08833967,0.0002083,53.2164,151.8065,60.9176,84.6777,-0.0012374,-0.00019925,0.0,0 STARLINK-3644,1 51987U 22025AH  22221.50001157 -.00019925  00000-0 -12374-2 0  9996,2 51987  53.2164 151.8065 0002083  60.9176  84.6777 15.08833967 24668,6917.899,95.438,541.205,538.323,0.0
51987.0,STARLINK-3644,PAYLOAD,2022-08-09 14:00:01,15.08816218,0.0002031,53.2166,151.43200000000004,62.1906,176.3053,0.0010519,0.00016482,0.0,0 STARLINK-3644,1 51987U 22025AH  22221.58334491  .00016482  00000-0  10519-2 0  9996,2 51987  53.2166 151.4320 0002031  62.1906 176.3053 15.08816218  1300,6917.953,95.439,541.2230000000002,538.413,0.0
51987.0,STARLINK-3644,PAYLOAD,2022-08-09 22:00:00,15.08836177,0.0002044999999999,53.2168,149.9361,62.8173,187.245,-0.0030656999999999,-0.00048745,0.0,0 STARLINK-3644,1 51987U 22025AH  22221.91667824 -.00048745  00000-0 -30657-2 0  9996,2 51987  53.2168 149.9361 0002045  62.8173 187.2450 15.08836177  1305,6917.892,95.438,541.172,538.342,0.0
51987.0,STARLINK-3644,PAYLOAD,2022-08-10 14:00:01,15.08803563,0.0002006999999999,53.2174,146.9432,61.3511,211.8446,0.0017678,0.00027931,0.0,0 STARLINK-3644,1 51987U 22025AH  22222.58334491  .00027931  00000-0  17678-2 0  9991,2 51987  53.2174 146.9432 0002007  61.3511 211.8446 15.08803563 24820,6917.9919999999975,95.44,541.245,538.4680000000002,0.0
51987.0,STARLINK-3644,PAYLOAD,2022-08-10 22:00:00,15.08838639,0.0002084,53.2177,145.4475,62.6994,222.053,-0.00098721,-0.00015965,0.0,0 STARLINK-3644,1 51987U 22025AH  22222.91667824 -.00015965  00000-0 -98721-3 0  9992,2 51987  53.2177 145.4475 0002084  62.6994 222.0530 15.08838639  1306,6917.885,95.438,541.191,538.308,0.0
51987.0,STARLINK-3644,PAYLOAD,2022-08-11 14:00:01,15.08821848,0.0002061999999999,53.218,142.4546,63.4554,244.4744,0.0021835,0.00034617,0.0,0 STARLINK-3644,1 51987U 22025AH  22223.58334491  .00034617  00000-0  21835-2 0  9991,2 51987  53.2180 142.4546 0002062  63.4554 244.4744 15.08821848  1302,6917.936,95.439,541.227,538.374,0.0
51987.0,STARLINK-3644,PAYLOAD,2022-08-11 20:00:01,15.08854163,0.0002098,53.2183,141.3326,65.7158,160.8989,0.00012818,1.753e-05,0.0,0 STARLINK-3644,1 51987U 22025AH  22223.83334491  .00001753  00000-0  12818-3 0  9996,2 51987  53.2183 141.3326 0002098  65.7158 160.8989 15.08854163 25015,6917.837,95.437,541.153,538.251,0.0
51987.0,STARLINK-3644,PAYLOAD,2022-08-12 14:00:01,15.0882411,0.0001936,53.2181,137.9657,64.6648,278.0946,0.0030485,0.00048542,0.0,0 STARLINK-3644,1 51987U 22025AH  22224.58334491  .00048542  00000-0  30485-2 0  9995,2 51987  53.2181 137.9657 0001936  64.6648 278.0946 15.08824110  1303,6917.929,95.439,541.133,538.455,0.0
51987.0,STARLINK-3644,PAYLOAD,2022-08-12 20:00:01,15.08866818,0.0001956999999999,53.2183,136.8438,66.1215,195.3815,-0.0015407,-0.00024743,0.0,0 STARLINK-3644,1 51987U 22025AH  22224.83335648 -.00024743  00000-0 -15407-2 0  9994,2 51987  53.2183 136.8438 0001957  66.1215 195.3815 15.08866818 25167,6917.7980000000025,95.436,541.0169999999998,538.31,0.0
51987.0,STARLINK-3644,PAYLOAD,2022-08-12 22:00:01,15.0887975,0.0001962,53.2182,136.4702,63.2597,291.1446,-0.0040993,-0.00065012,0.0,0 STARLINK-3644,1 51987U 22025AH  22224.91668981 -.00065012  00000-0 -40993-2 0  9994,2 51987  53.2182 136.4702 0001962  63.2597 291.1446 15.08879750  1307,6917.759,95.435,540.981,538.2669999999998,0.0
51987.0,STARLINK-3644,PAYLOAD,2022-08-13 14:00:01,15.08784136,0.000173,53.2177,133.4768,63.9864,313.56,0.002986,0.00047482,0.0,0 STARLINK-3644,1 51987U 22025AH  22225.58334491  .00047482  00000-0  29860-2 0  9993,2 51987  53.2177 133.4768 0001730  63.9864 313.5600 15.08784136  1301,6918.051,95.441,541.113,538.719,0.0
